[{"OBJECT_NAME":"GSAT-18","OBJECT_ID":"2016-060A","EPOCH":"2026-03-06T14:36:38.539296","MEAN_MOTION":1.00271796,"ECCENTRICITY":0.00033355,"INCLINATION":0.0167,"RA_OF_ASC_NODE":151.1651,"ARG_OF_PERICENTER":248.8474,"MEAN_ANOMALY":57.44,"EPHEMERIS_TYPE":0,"CLASSIFICATION_TYPE":"U","NORAD_CAT_ID":41793,"ELEMENT_SET_NO":999,"REV_AT_EPOCH":3449,"BSTAR":0,"MEAN_MOTION_DOT":-8.0e-7,"MEAN_MOTION_DDOT":0},{"OBJECT_NAME":"SKY MUSTER 2 (NBN1B)","OBJECT_ID":"2016-060B","EPOCH":"2026-03-05T12:58:25.061376","MEAN_MOTION":1.0026797,"ECCENTRICITY":0.0001634,"INCLINATION":0.02,"RA_OF_ASC_NODE":162.105,"ARG_OF_PERICENTER":199.1792,"MEAN_ANOMALY":141.3969,"EPHEMERIS_TYPE":0,"CLASSIFICATION_TYPE":"U","NORAD_CAT_ID":41794,"ELEMENT_SET_NO":999,"REV_AT_EPOCH":3448,"BSTAR":0,"MEAN_MOTION_DOT":0,"MEAN_MOTION_DDOT":0},{"OBJECT_NAME":"HIMAWARI-9","OBJECT_ID":"2016-064A","EPOCH":"2026-03-06T19:45:38.607264","MEAN_MOTION":1.00271706,"ECCENTRICITY":0.0001263,"INCLINATION":0.0138,"RA_OF_ASC_NODE":164.4008,"ARG_OF_PERICENTER":214.748,"MEAN_ANOMALY":222.576,"EPHEMERIS_TYPE":0,"CLASSIFICATION_TYPE":"U","NORAD_CAT_ID":41836,"ELEMENT_SET_NO":999,"REV_AT_EPOCH":3418,"BSTAR":0,"MEAN_MOTION_DOT":-2.78e-6,"MEAN_MOTION_DDOT":0},{"OBJECT_NAME":"SHIJIAN-17 (SJ-17)","OBJECT_ID":"2016-065A","EPOCH":"2026-03-05T20:21:37.334592","MEAN_MOTION":0.99862123,"ECCENTRICITY":0.000102,"INCLINATION":5.4902,"RA_OF_ASC_NODE":73.8481,"ARG_OF_PERICENTER":311.614,"MEAN_ANOMALY":111.7929,"EPHEMERIS_TYPE":0,"CLASSIFICATION_TYPE":"U","NORAD_CAT_ID":41838,"ELEMENT_SET_NO":999,"REV_AT_EPOCH":3417,"BSTAR":0,"MEAN_MOTION_DOT":1.02e-6,"MEAN_MOTION_DDOT":0},{"OBJECT_NAME":"GOES 16","OBJECT_ID":"2016-071A","EPOCH":"2026-03-06T13:27:37.352736","MEAN_MOTION":1.00271524,"ECCENTRICITY":0.00023914,"INCLINATION":0.1362,"RA_OF_ASC_NODE":89.1476,"ARG_OF_PERICENTER":221.4894,"MEAN_ANOMALY":310.8421,"EPHEMERIS_TYPE":0,"CLASSIFICATION_TYPE":"U","NORAD_CAT_ID":41866,"ELEMENT_SET_NO":999,"REV_AT_EPOCH":3407,"BSTAR":0,"MEAN_MOTION_DOT":-9.5e-7,"MEAN_MOTION_DDOT":0},{"OBJECT_NAME":"TIANLIAN 1-04","OBJECT_ID":"2016-072A","EPOCH":"2026-03-06T18:13:24.949920","MEAN_MOTION":1.0027377,"ECCENTRICITY":0.0040702,"INCLINATION":0.6024,"RA_OF_ASC_NODE":83.5437,"ARG_OF_PERICENTER":95.4447,"MEAN_ANOMALY":75.5926,"EPHEMERIS_TYPE":0,"CLASSIFICATION_TYPE":"U","NORAD_CAT_ID":41869,"ELEMENT_SET_NO":999,"REV_AT_EPOCH":3427,"BSTAR":0,"MEAN_MOTION_DOT":2.7e-7,"MEAN_MOTION_DDOT":0},{"OBJECT_NAME":"WGS F8 (USA 272)","OBJECT_ID":"2016-075A","EPOCH":"2026-03-05T22:26:38.714784","MEAN_MOTION":1.00270339,"ECCENTRICITY":3.177e-5,"INCLINATION":0.0105,"RA_OF_ASC_NODE":184.3362,"ARG_OF_PERICENTER":243.356,"MEAN_ANOMALY":222.4244,"EPHEMERIS_TYPE":0,"CLASSIFICATION_TYPE":"U","NORAD_CAT_ID":41879,"ELEMENT_SET_NO":999,"REV_AT_EPOCH":3378,"BSTAR":0,"MEAN_MOTION_DOT":-2.09e-6,"MEAN_MOTION_DDOT":0},{"OBJECT_NAME":"FENGYUN 4A","OBJECT_ID":"2016-077A","EPOCH":"2026-03-06T19:40:46.572672","MEAN_MOTION":1.00278241,"ECCENTRICITY":0.0007272,"INCLINATION":2.0622,"RA_OF_ASC_NODE":81.3883,"ARG_OF_PERICENTER":135.0583,"MEAN_ANOMALY":6.9078,"EPHEMERIS_TYPE":0,"CLASSIFICATION_TYPE":"U","NORAD_CAT_ID":41882,"ELEMENT_SET_NO":999,"REV_AT_EPOCH":3390,"BSTAR":0,"MEAN_MOTION_DOT":-3.6e-6,"MEAN_MOTION_DDOT":0},{"OBJECT_NAME":"ECHOSTAR 19","OBJECT_ID":"2016-079A","EPOCH":"2026-03-05T03:41:38.459040","MEAN_MOTION":1.00272018,"ECCENTRICITY":0.00015487,"INCLINATION":0.0119,"RA_OF_ASC_NODE":113.9273,"ARG_OF_PERICENTER":231.2456,"MEAN_ANOMALY":136.0238,"EPHEMERIS_TYPE":0,"CLASSIFICATION_TYPE":"U","NORAD_CAT_ID":41893,"ELEMENT_SET_NO":999,"REV_AT_EPOCH":3366,"BSTAR":0,"MEAN_MOTION_DOT":-1.47e-6,"MEAN_MOTION_DDOT":0},{"OBJECT_NAME":"JCSAT-110A (JCSAT-15)","OBJECT_ID":"2016-082A","EPOCH":"2026-03-06T15:07:51.193632","MEAN_MOTION":1.0027069,"ECCENTRICITY":8.977e-5,"INCLINATION":0.0182,"RA_OF_ASC_NODE":146.4938,"ARG_OF_PERICENTER":236.3316,"MEAN_ANOMALY":118.5368,"EPHEMERIS_TYPE":0,"CLASSIFICATION_TYPE":"U","NORAD_CAT_ID":41903,"ELEMENT_SET_NO":999,"REV_AT_EPOCH":3373,"BSTAR":0,"MEAN_MOTION_DOT":-3.54e-6,"MEAN_MOTION_DDOT":0},{"OBJECT_NAME":"STAR ONE D1","OBJECT_ID":"2016-082B","EPOCH":"2026-03-06T13:33:29.291040","MEAN_MOTION":1.00270668,"ECCENTRICITY":0.00021865,"INCLINATION":0.0251,"RA_OF_ASC_NODE":99.186,"ARG_OF_PERICENTER":251.6455,"MEAN_ANOMALY":292.8073,"EPHEMERIS_TYPE":0,"CLASSIFICATION_TYPE":"U","NORAD_CAT_ID":41904,"ELEMENT_SET_NO":999,"REV_AT_EPOCH":3374,"BSTAR":0,"MEAN_MOTION_DOT":-2.15e-6,"MEAN_MOTION_DDOT":0},{"OBJECT_NAME":"TJS-2","OBJECT_ID":"2017-001A","EPOCH":"2026-03-06T14:16:32.662272","MEAN_MOTION":1.00272374,"ECCENTRICITY":0.0001771,"INCLINATION":0.5682,"RA_OF_ASC_NODE":86.9079,"ARG_OF_PERICENTER":255.0108,"MEAN_ANOMALY":103.0541,"EPHEMERIS_TYPE":0,"CLASSIFICATION_TYPE":"U","NORAD_CAT_ID":41911,"ELEMENT_SET_NO":999,"REV_AT_EPOCH":3368,"BSTAR":0,"MEAN_MOTION_DOT":-1.0e-7,"MEAN_MOTION_DDOT":0},{"OBJECT_NAME":"SBIRS GEO-4 (USA 273)","OBJECT_ID":"2017-004A","EPOCH":"2026-03-05T05:32:21.449184","MEAN_MOTION":1.00272828,"ECCENTRICITY":0.0002397,"INCLINATION":2.0504,"RA_OF_ASC_NODE":40.1008,"ARG_OF_PERICENTER":304.5511,"MEAN_ANOMALY":282.2945,"EPHEMERIS_TYPE":0,"CLASSIFICATION_TYPE":"U","NORAD_CAT_ID":41937,"ELEMENT_SET_NO":999,"REV_AT_EPOCH":3355,"BSTAR":0,"MEAN_MOTION_DOT":1.16e-6,"MEAN_MOTION_DDOT":0},{"OBJECT_NAME":"HISPASAT 36W-1","OBJECT_ID":"2017-006A","EPOCH":"2026-03-06T06:56:30.522624","MEAN_MOTION":1.00271588,"ECCENTRICITY":9.78e-5,"INCLINATION":0.0108,"RA_OF_ASC_NODE":350.6759,"ARG_OF_PERICENTER":355.7382,"MEAN_ANOMALY":245.7209,"EPHEMERIS_TYPE":0,"CLASSIFICATION_TYPE":"U","NORAD_CAT_ID":41942,"ELEMENT_SET_NO":999,"REV_AT_EPOCH":3321,"BSTAR":0,"MEAN_MOTION_DOT":-2.49e-6,"MEAN_MOTION_DDOT":0},{"OBJECT_NAME":"TELKOM 3S","OBJECT_ID":"2017-007A","EPOCH":"2026-03-05T17:27:38.839968","MEAN_MOTION":1.00269901,"ECCENTRICITY":0.00023726,"INCLINATION":0.0091,"RA_OF_ASC_NODE":139.4776,"ARG_OF_PERICENTER":209.9529,"MEAN_ANOMALY":193.9163,"EPHEMERIS_TYPE":0,"CLASSIFICATION_TYPE":"U","NORAD_CAT_ID":41944,"ELEMENT_SET_NO":999,"REV_AT_EPOCH":3310,"BSTAR":0,"MEAN_MOTION_DOT":-3.69e-6,"MEAN_MOTION_DDOT":0},{"OBJECT_NAME":"INTELSAT 32E (IS-32E)","OBJECT_ID":"2017-007B","EPOCH":"2026-03-06T12:02:31.180992","MEAN_MOTION":1.00272679,"ECCENTRICITY":2.305e-5,"INCLINATION":0.0149,"RA_OF_ASC_NODE":127.3403,"ARG_OF_PERICENTER":194.7853,"MEAN_ANOMALY":339.5296,"EPHEMERIS_TYPE":0,"CLASSIFICATION_TYPE":"U","NORAD_CAT_ID":41945,"ELEMENT_SET_NO":999,"REV_AT_EPOCH":3319,"BSTAR":0,"MEAN_MOTION_DOT":-2.73e-6,"MEAN_MOTION_DDOT":0},{"OBJECT_NAME":"ECHOSTAR 23","OBJECT_ID":"2017-014A","EPOCH":"2026-03-06T13:26:07.496736","MEAN_MOTION":1.00270757,"ECCENTRICITY":0.00018017,"INCLINATION":0.0182,"RA_OF_ASC_NODE":154.3844,"ARG_OF_PERICENTER":191.2542,"MEAN_ANOMALY":270.2604,"EPHEMERIS_TYPE":0,"CLASSIFICATION_TYPE":"U","NORAD_CAT_ID":42070,"ELEMENT_SET_NO":999,"REV_AT_EPOCH":3289,"BSTAR":0,"MEAN_MOTION_DOT":-6.1e-7,"MEAN_MOTION_DDOT":0}]
